     2.100          NAVIGATION                              RINEX VERSION / TYPE
fic2rin                                 06/24/2013 00:20:23 PGM / RUN BY / DATE
                                                            END OF HEADER
29 13  6 23  4  0  0.0  .447382219136D-03  .341060513165D-11  .000000000000D+00
     .650000000000D+02 -.622500000000D+02  .416303054979D-08  .237739798095D+01
    -.341795384884D-05  .179890042637D-02  .122673809528D-04  .515363254356D+04
     .144000000000D+05  .894069671631D-07 -.296358169348D+01  .130385160446D-07
     .966698981956D+00  .148750000000D+03 -.100444184854D+01 -.762746057149D-08
     .550022910662D-09  .100000000000D+01  .174600000000D+04  .000000000000D+00
     .240000000000D+01  .000000000000D+00 -.931322574615D-08  .650000000000D+02
     .720600000000D+04  .400000000000D+01
31 13  6 23  4  0  0.0  .318584498018D-03  .113686837722D-11  .000000000000D+00
     .720000000000D+02  .845312500000D+02  .421088968617D-08  .305388039531D+01
     .439956784248D-05  .784096762072D-02  .538304448128D-06  .515361592293D+04
     .144000000000D+05  .204890966415D-07  .120133789609D+01  .102445483208D-06
     .980130749671D+00  .381187500000D+03 -.734630176433D+00 -.816069706865D-08
     .195365280605D-09  .100000000000D+01  .174600000000D+04  .000000000000D+00
     .240000000000D+01  .000000000000D+00 -.130385160446D-07  .720000000000D+02
     .720600000000D+04  .400000000000D+01
32 13  6 23  4  0  0.0 -.559051055461D-03  .113686837722D-12  .000000000000D+00
     .670000000000D+02 -.187187500000D+02  .479341395065D-08 -.273526077729D+01
    -.105425715446D-05  .115740648471D-01  .924244523048D-05  .515366529655D+04
     .144000000000D+05 -.214204192162D-06 -.831348383694D+00  .173225998878D-06
     .949009284377D+00  .193500000000D+03 -.346039068179D+00 -.788068540504D-08
    -.813248160764D-09  .100000000000D+01  .174600000000D+04  .000000000000D+00
     .240000000000D+01  .000000000000D+00 -.279396772385D-08  .670000000000D+02
     .720600000000D+04  .400000000000D+01
18 13  6 23  3 59 44.0  .260047148913D-03  .181898940355D-11  .000000000000D+00
     .250000000000D+02 -.346250000000D+02  .570488048831D-08  .105625002732D+01
    -.169873237610D-05  .144769257167D-01  .840984284878D-05  .515360527229D+04
     .143840000000D+05 -.223517417908D-06 -.918214936343D+00  .465661287308D-07
     .926988493477D+00  .206218750000D+03 -.209835844542D+01 -.870786271743D-08
    -.884322549870D-09  .100000000000D+01  .174600000000D+04  .000000000000D+00
     .240000000000D+01  .000000000000D+00 -.111758708954D-07  .250000000000D+02
     .726600000000D+04  .400000000000D+01
 7 13  6 23  3 59 44.0  .228161923587D-03  .420641299570D-11  .000000000000D+00
     .800000000000D+01  .855312500000D+02  .436589614281D-08  .307369314544D+01
     .445358455181D-05  .651368359104D-02  .115483999252D-06  .515368371773D+04
     .143840000000D+05 -.167638063431D-07  .119669123232D+01 -.115483999252D-06
     .975142332147D+00  .386343750000D+03 -.293298071104D+01 -.831856078716D-08
     .263939565571D-09  .100000000000D+01  .174600000000D+04  .000000000000D+00
     .240000000000D+01  .000000000000D+00 -.107102096081D-07  .800000000000D+01
     .124560000000D+05  .400000000000D+01
 7 13  6 23  5 59 44.0  .228192657232D-03  .420641299570D-11  .000000000000D+00
     .260000000000D+02  .811875000000D+02  .434553815196D-08 -.215931899372D+01
     .419467687607D-05  .651459733490D-02  .493600964546D-06  .515368217850D+04
     .215840000000D+05 -.372529029846D-08  .119663183931D+01 -.372529029846D-07
     .975144358288D+00  .379156250000D+03 -.293297946024D+01 -.825748681461D-08
     .237152735506D-09  .100000000000D+01  .174600000000D+04  .000000000000D+00
     .240000000000D+01  .000000000000D+00 -.107102096081D-07  .260000000000D+02
     .144060000000D+05  .400000000000D+01
 1 13  6 23  6  0  0.0  .409395433962D-04  .466116034659D-11  .000000000000D+00
     .830000000000D+02  .267187500000D+02  .509806949791D-08 -.152474254799D+01
     .124983489513D-05  .199654512107D-02  .586174428463D-05  .515368381500D+04
     .216000000000D+05  .391155481339D-07 -.196386703796D+01  .745058059692D-08
     .959865129847D+00  .265562500000D+03  .265909601459D+00 -.823069998455D-08
     .530022077547D-09  .100000000000D+01  .174600000000D+04  .000000000000D+00
     .240000000000D+01  .000000000000D+00  .838190317154D-08  .830000000000D+02
     .144060000000D+05  .400000000000D+01
 2 13  6 23  6  0  0.0  .438359566033D-03  .181898940355D-11  .000000000000D+00
     .730000000000D+02  .254375000000D+02  .569595154496D-08 -.784238247837D+00
     .155158340931D-05  .124247597996D-01  .551901757717D-05  .515366524696D+04
     .216000000000D+05  .240281224251D-06 -.198611412473D+01  .143423676491D-06
     .938392062790D+00  .259718750000D+03 -.258585985883D+01 -.856464246602D-08
     .536450916763D-09  .100000000000D+01  .174600000000D+04  .000000000000D+00
     .240000000000D+01  .000000000000D+00 -.176951289177D-07  .730000000000D+02
     .144060000000D+05  .400000000000D+01
 3 13  6 23  6  0  0.0  .223667360842D-03  .488853402203D-11  .000000000000D+00
     .670000000000D+02 -.773437500000D+02  .478984237330D-08 -.610209137157D+00
    -.395439565182D-05  .163779619616D-01  .118985772133D-04  .515370945740D+04
     .216000000000D+05 -.104308128357D-06  .312730814654D+01  .182539224625D-06
     .935200676279D+00  .142468750000D+03  .129719393404D+01 -.833499004293D-08
     .408945605655D-09  .100000000000D+01  .174600000000D+04  .000000000000D+00
     .340000000000D+01  .000000000000D+00 -.465661287308D-08  .670000000000D+02
     .144060000000D+05  .400000000000D+01
 4 13  6 23  6  0  0.0  .253242440522D-03  .103455022327D-10  .000000000000D+00
     .640000000000D+02  .222812500000D+02  .561666252797D-08  .241887493862D+01
     .105425715446D-05  .103140701540D-01  .559166073799D-05  .515355362892D+04
     .216000000000D+05 -.558793544769D-08 -.196968650999D+01 -.178813934326D-06
     .937416853803D+00  .260375000000D+03  .980647399672D+00 -.830998900154D-08
     .500735143343D-09  .100000000000D+01  .174600000000D+04  .000000000000D+00
     .240000000000D+01  .000000000000D+00 -.605359673500D-08  .640000000000D+02
     .144060000000D+05  .400000000000D+01
 6 13  6 23  6  0  0.0  .175173394382D-03 -.171667124960D-10  .000000000000D+00
     .470000000000D+02 -.835000000000D+02  .461412076808D-08  .121661249878D+01
    -.429153442383D-05  .810688349884D-02  .117253512144D-04  .515368390656D+04
     .216000000000D+05  .147148966789D-06 -.307626072028D+01  .119209289551D-06
     .941802787535D+00  .145031250000D+03 -.292215149214D+00 -.789782897628D-08
     .361800784741D-09  .100000000000D+01  .174600000000D+04  .000000000000D+00
     .485000000000D+01  .000000000000D+00 -.512227416039D-08  .470000000000D+02
     .144060000000D+05  .400000000000D+01
 8 13  6 23  6  0  0.0  .694626942277D-05  .341060513165D-12  .000000000000D+00
     .560000000000D+02  .576562500000D+02  .389373361821D-08 -.272306965919D+01
     .292807817459D-05  .130408614641D-01  .128522515297D-06  .515371300888D+04
     .216000000000D+05 -.707805156708D-07  .128853333028D+01 -.143423676491D-06
     .997860541445D+00  .398062500000D+03 -.287088295459D+01 -.798640409436D-08
     .177507393895D-09  .100000000000D+01  .174600000000D+04  .000000000000D+00
     .240000000000D+01  .000000000000D+00 -.419095158577D-08  .560000000000D+02
     .144060000000D+05  .400000000000D+01
 9 13  6 23  6  0  0.0  .249675475061D-03  .261479726760D-11  .000000000000D+00
     .710000000000D+02  .898437500000D+02  .430267922386D-08 -.131008708897D+01
     .502914190292D-05  .174454892986D-01  .102818012238D-05  .515277679062D+04
     .216000000000D+05 -.134110450745D-06  .117359039680D+01  .301748514175D-06
     .983776187918D+00  .376156250000D+03  .167790418703D+01 -.844856620241D-08
     .220723479733D-09  .100000000000D+01  .174600000000D+04  .000000000000D+00
     .340000000000D+01  .000000000000D+00 -.558793544769D-08  .710000000000D+02
     .144060000000D+05  .400000000000D+01
10 13  6 23  6  0  0.0 -.844672322273D-04 -.136424205266D-11  .000000000000D+00
     .660000000000D+02 -.255937500000D+02  .527343394541D-08  .166894451600D+01
    -.132806599140D-05  .124600424897D-01  .880658626556D-05  .515363785362D+04
     .216000000000D+05 -.322237610817D-06 -.901022175945D+00  .670552253723D-07
     .943223819344D+00  .204718750000D+03  .802822161405D+00 -.828391648694D-08
    -.714315468392D-09  .100000000000D+01  .174600000000D+04  .000000000000D+00
     .240000000000D+01  .000000000000D+00 -.279396772385D-08  .660000000000D+02
     .144060000000D+05  .400000000000D+01
11 13  6 23  6  0  0.0 -.394179951400D-03 -.363797880709D-11  .000000000000D+00
     .101000000000D+03  .413125000000D+02  .642098174538D-08 -.195290435851D+01
     .211596488953D-05  .140855773352D-01  .689178705215D-05  .515368133926D+04
     .216000000000D+05  .212341547012D-06 -.226288767184D+01  .558793544769D-08
     .888869144922D+00  .201500000000D+03  .117558690254D+01 -.871000566384D-08
     .810748056625D-09  .100000000000D+01  .174600000000D+04  .000000000000D+00
     .240000000000D+01  .000000000000D+00 -.116415321827D-07  .101000000000D+03
     .144060000000D+05  .400000000000D+01
12 13  6 23  6  0  0.0  .140872783959D-03  .204636307899D-11  .000000000000D+00
     .720000000000D+02 -.169437500000D+03  .389480509141D-08 -.247507155417D+01
    -.866316258907D-05  .451362086460D-02  .456720590591D-05  .515355311394D+04
     .216000000000D+05 -.745058059692D-08  .225631729713D+01  .279396772385D-07
     .984404841853D+00  .303593750000D+03  .297067486099D+00 -.799854745732D-08
    -.297155234851D-09  .100000000000D+01  .174600000000D+04  .000000000000D+00
     .240000000000D+01  .000000000000D+00 -.121071934700D-07  .720000000000D+02
     .144060000000D+05  .400000000000D+01
